{
    "links": {
        "self": "http://www.neowsapp.com/rest/v1/neo/3401383?api_key=iIulBulltgU6a56xZRHN4H3l9WmuAYTsLGpBGhQ2"
    },
    "id": "3401383",
    "neo_reference_id": "3401383",
    "name": "(2008 CJ)",
    "designation": "2008 CJ",
    "nasa_jpl_url": "http://ssd.jpl.nasa.gov/sbdb.cgi?sstr=3401383",
    "absolute_magnitude_h": 27.4,
    "estimated_diameter": {
        "kilometers": {
            "estimated_diameter_min": 0.0088014652,
            "estimated_diameter_max": 0.0196806745
        },
        "meters": {
            "estimated_diameter_min": 8.801465209,
            "estimated_diameter_max": 19.6806745089
        },
        "miles": {
            "estimated_diameter_min": 0.0054689752,
            "estimated_diameter_max": 0.0122290004
        },
        "feet": {
            "estimated_diameter_min": 28.8761991163,
            "estimated_diameter_max": 64.5691441559
        }
    },
    "is_potentially_hazardous_asteroid": false,
    "close_approach_data": [
        {
            "close_approach_date": "2008-02-03",
            "close_approach_date_full": "2008-Feb-03 18:07",
            "epoch_date_close_approach": 1202062020000,
            "relative_velocity": {
                "kilometers_per_second": "6.7639327118",
                "kilometers_per_hour": "24350.1577626001",
                "miles_per_hour": "15130.2410831"
            },
            "miss_distance": {
                "astronomical": "0.0399803036",
                "lunar": "15.5523381004",
                "kilometers": "5980968.260513332",
                "miles": "3716401.3452627016"
            },
            "orbiting_body": "Earth"
        }
    ],
    "orbital_data": {
        "orbit_id": "7",
        "orbit_determination_date": "2017-04-06 09:04:34",
        "first_observation_date": "2008-02-02",
        "last_observation_date": "2008-02-03",
        "data_arc_in_days": 1,
        "observations_used": 13,
        "orbit_uncertainty": "9",
        "minimum_orbit_intersection": ".0398111",
        "jupiter_tisserand_invariant": "3.294",
        "epoch_osculation": "2454498.5",
        "eccentricity": ".5699220359838018",
        "semi_major_axis": "2.384539803472292",
        "inclination": "2.226057888859899",
        "ascending_node_longitude": "132.0162300303017",
        "orbital_period": "1344.947373613418",
        "perihelion_distance": "1.025538023792949",
        "perihelion_argument": "2.515597707014742",
        "aphelion_distance": "3.743541583151636",
        "perihelion_time": "2454500.456155855783",
        "mean_anomaly": "359.4763987633286",
        "mean_motion": ".2676684657428654",
        "equinox": "J2000",
        "orbit_class": {
            "orbit_class_type": "AMO",
            "orbit_class_description": "Near-Earth asteroid orbits similar to that of 1221 Amor",
            "orbit_class_range": "1.017 AU < q (perihelion) < 1.3 AU"
        }
    },
    "is_sentry_object": false
}